{
    "links": {
        "self": "http://www.neowsapp.com/rest/v1/neo/3092182?api_key=iIulBulltgU6a56xZRHN4H3l9WmuAYTsLGpBGhQ2"
    },
    "id": "3092182",
    "neo_reference_id": "3092182",
    "name": "(1998 KD3)",
    "designation": "1998 KD3",
    "nasa_jpl_url": "http://ssd.jpl.nasa.gov/sbdb.cgi?sstr=3092182",
    "absolute_magnitude_h": 20.6,
    "estimated_diameter": {
        "kilometers": {
            "estimated_diameter_min": 0.2016299194,
            "estimated_diameter_max": 0.4508582062
        },
        "meters": {
            "estimated_diameter_min": 201.6299194428,
            "estimated_diameter_max": 450.8582061718
        },
        "miles": {
            "estimated_diameter_min": 0.1252869847,
            "estimated_diameter_max": 0.2801502144
        },
        "feet": {
            "estimated_diameter_min": 661.5155049046,
            "estimated_diameter_max": 1479.1936371367
        }
    },
    "is_potentially_hazardous_asteroid": false,
    "close_approach_data": [
        {
            "close_approach_date": "1998-05-22",
            "close_approach_date_full": "1998-May-22 11:06",
            "epoch_date_close_approach": 895835160000,
            "relative_velocity": {
                "kilometers_per_second": "18.3663494117",
                "kilometers_per_hour": "66118.8578819562",
                "miles_per_hour": "41083.68699893"
            },
            "miss_distance": {
                "astronomical": "0.0597775087",
                "lunar": "23.2534508843",
                "kilometers": "8942587.975426469",
                "miles": "5556666.5018805122"
            },
            "orbiting_body": "Earth"
        },
        {
            "close_approach_date": "2001-04-23",
            "close_approach_date_full": "2001-Apr-23 20:08",
            "epoch_date_close_approach": 988056480000,
            "relative_velocity": {
                "kilometers_per_second": "17.8838714861",
                "kilometers_per_hour": "64381.9373499211",
                "miles_per_hour": "40004.4321272329"
            },
            "miss_distance": {
                "astronomical": "0.4309844285",
                "lunar": "167.6529426865",
                "kilometers": "64474352.506767295",
                "miles": "40062504.924666871"
            },
            "orbiting_body": "Earth"
        },
        {
            "close_approach_date": "2135-05-21",
            "close_approach_date_full": "2135-May-21 21:04",
            "epoch_date_close_approach": 5219067840000,
            "relative_velocity": {
                "kilometers_per_second": "18.2140712728",
                "kilometers_per_hour": "65570.6565820285",
                "miles_per_hour": "40743.0560300943"
            },
            "miss_distance": {
                "astronomical": "0.0545276956",
                "lunar": "21.2112735884",
                "kilometers": "8157227.117768372",
                "miles": "5068665.8938206536"
            },
            "orbiting_body": "Earth"
        }
    ],
    "orbital_data": {
        "orbit_id": "11",
        "orbit_determination_date": "2017-04-06 09:17:48",
        "first_observation_date": "1998-05-24",
        "last_observation_date": "1998-06-21",
        "data_arc_in_days": 28,
        "observations_used": 173,
        "orbit_uncertainty": "7",
        "minimum_orbit_intersection": ".0527618",
        "jupiter_tisserand_invariant": "3.486",
        "epoch_osculation": "2459000.5",
        "eccentricity": ".5094779494459886",
        "semi_major_axis": "2.043524128489619",
        "inclination": "29.38416760423082",
        "ascending_node_longitude": "241.4133665652434",
        "orbital_period": "1067.008997854012",
        "perihelion_distance": "1.002393645863327",
        "perihelion_argument": "324.534708087221",
        "aphelion_distance": "3.08465461111591",
        "perihelion_time": "2459469.151896085584",
        "mean_anomaly": "201.8807311558455",
        "mean_motion": ".3373917190239621",
        "equinox": "J2000",
        "orbit_class": {
            "orbit_class_type": "APO",
            "orbit_class_description": "Near-Earth asteroid orbits which cross the Earth’s orbit similar to that of 1862 Apollo",
            "orbit_class_range": "a (semi-major axis) > 1.0 AU; q (perihelion) < 1.017 AU"
        }
    },
    "is_sentry_object": false
}